STARLINK-36726          
1 67925U 26036X   26074.58335648 -.01881069  00000+0 -32540-1 0  9996
2 67925  42.9995 214.3299 0001726 280.8758 182.8076 15.53622835  4593
STARLINK-36758          
1 67926U 26036Y   26074.58335648 -.01916875  00000+0 -25498-1 0  9995
2 67926  42.9990 213.9461 0001258 263.9281 354.0067 15.60637456  4594
STARLINK-36728          
1 67927U 26036Z   26074.58335648 -.01960426  00000+0 -22821-1 0  9994
2 67927  42.9994 213.7794 0001600 269.5524  55.0197 15.64089180  4590
STARLINK-36771          
1 67928U 26036AA  26074.58335648 -.01944970  00000+0 -24262-1 0  9992
2 67928  42.9995 213.8606 0001560 270.9416  20.8363 15.62322946  4599
STARLINK-36809          
1 67929U 26036AB  26074.58335648 -.01948207  00000+0 -24282-1 0  9992
2 67929  42.9993 213.8378 0001612 269.8460  30.8866 15.62350143  4597
STARLINK-36865          
1 67930U 26036AC  26074.58335648 -.01964422  00000+0 -20360-1 0  9994
2 67930  42.9999 213.6456 0001598 279.0810  99.1323 15.66960761  4598
STARLINK-36781          
1 67931U 26036AD  26074.58335648 -.01960549  00000+0 -20819-1 0  9990
2 67931  42.9996 213.6761 0001564 276.3034  89.7704 15.66362156  4598
STARLINK-36301          
1 67932U 26037A   26074.57660755  .00189323  00000+0  88065-3 0  9990
2 67932  42.9974 162.5002 0001420 249.7495 110.3224 15.82051411  4181
STARLINK-36852          
1 67933U 26037B   26074.58335648 -.01902160  00000+0 -14447-1 0  9998
2 67933  42.9996 162.5081 0001559 282.5244  97.3954 15.74712362  4143
STARLINK-36861          
1 67934U 26037C   26074.63824072  .00211569  00000+0  98090-3 0  9990
2 67934  42.9976 162.1003 0001722 258.2302 101.8377 15.82059930  4198
STARLINK-36860          
1 67935U 26037D   26074.57430945  .00936049  00000+0  37333-2 0  9995
2 67935  42.9982 162.4816 0032190 359.1238   0.9573 15.82799134  4186
STARLINK-36848          
1 67936U 26037E   26073.68899729 -.00144226  00000+0 -69878-3 0  9996
2 67936  42.9972 167.8849 0001955   0.4471 359.6402 15.81862945  4041
STARLINK-36370          
1 67937U 26037F   26074.63682774 -.00603215  00000+0 -31657-2 0  9994
2 67937  42.9979 162.0893 0001331 245.5295 114.5438 15.81339131  4198
STARLINK-36371          
1 67938U 26037G   26074.63524241  .00279869  00000+0  12846-2 0  9990
2 67938  42.9982 162.0759 0001578 249.4286 110.6416 15.82091870  4199
STARLINK-36246          
1 67939U 26037H   26074.58335648 -.01911227  00000+0 -12198-1 0  9999
2 67939  42.9992 162.3982 0001411 278.7779 144.7109 15.78600754  4054
STARLINK-36907          
1 67940U 26037J   26074.63224674  .00267835  00000+0  12318-2 0  9994
2 67940  42.9985 162.0516 0001408 277.9932  82.0780 15.82081221  4197
