[{"OBJECT_NAME":"STARLINK-36726","OBJECT_ID":"2026-036X","EPOCH":"2026-03-15T14:00:01.999872","MEAN_MOTION":15.53622835,"ECCENTRICITY":0.0001726,"INCLINATION":42.9995,"RA_OF_ASC_NODE":214.3299,"ARG_OF_PERICENTER":280.8758,"MEAN_ANOMALY":182.8076,"EPHEMERIS_TYPE":0,"CLASSIFICATION_TYPE":"U","NORAD_CAT_ID":67925,"ELEMENT_SET_NO":999,"REV_AT_EPOCH":459,"BSTAR":-0.032540095,"MEAN_MOTION_DOT":-0.01881069,"MEAN_MOTION_DDOT":0},{"OBJECT_NAME":"STARLINK-36758","OBJECT_ID":"2026-036Y","EPOCH":"2026-03-15T14:00:01.999872","MEAN_MOTION":15.60637456,"ECCENTRICITY":0.00012584,"INCLINATION":42.999,"RA_OF_ASC_NODE":213.9461,"ARG_OF_PERICENTER":263.9281,"MEAN_ANOMALY":354.0067,"EPHEMERIS_TYPE":0,"CLASSIFICATION_TYPE":"U","NORAD_CAT_ID":67926,"ELEMENT_SET_NO":999,"REV_AT_EPOCH":459,"BSTAR":-0.0254977,"MEAN_MOTION_DOT":-0.01916875,"MEAN_MOTION_DDOT":0},{"OBJECT_NAME":"STARLINK-36728","OBJECT_ID":"2026-036Z","EPOCH":"2026-03-15T14:00:01.999872","MEAN_MOTION":15.6408918,"ECCENTRICITY":0.00016007,"INCLINATION":42.9994,"RA_OF_ASC_NODE":213.7794,"ARG_OF_PERICENTER":269.5524,"MEAN_ANOMALY":55.0197,"EPHEMERIS_TYPE":0,"CLASSIFICATION_TYPE":"U","NORAD_CAT_ID":67927,"ELEMENT_SET_NO":999,"REV_AT_EPOCH":459,"BSTAR":-0.022820993,"MEAN_MOTION_DOT":-0.01960426,"MEAN_MOTION_DDOT":0},{"OBJECT_NAME":"STARLINK-36771","OBJECT_ID":"2026-036AA","EPOCH":"2026-03-15T14:00:01.999872","MEAN_MOTION":15.62322946,"ECCENTRICITY":0.00015605,"INCLINATION":42.9995,"RA_OF_ASC_NODE":213.8606,"ARG_OF_PERICENTER":270.9416,"MEAN_ANOMALY":20.8363,"EPHEMERIS_TYPE":0,"CLASSIFICATION_TYPE":"U","NORAD_CAT_ID":67928,"ELEMENT_SET_NO":999,"REV_AT_EPOCH":459,"BSTAR":-0.024262373,"MEAN_MOTION_DOT":-0.0194497,"MEAN_MOTION_DDOT":0},{"OBJECT_NAME":"STARLINK-36809","OBJECT_ID":"2026-036AB","EPOCH":"2026-03-15T14:00:01.999872","MEAN_MOTION":15.62350143,"ECCENTRICITY":0.00016123,"INCLINATION":42.9993,"RA_OF_ASC_NODE":213.8378,"ARG_OF_PERICENTER":269.846,"MEAN_ANOMALY":30.8866,"EPHEMERIS_TYPE":0,"CLASSIFICATION_TYPE":"U","NORAD_CAT_ID":67929,"ELEMENT_SET_NO":999,"REV_AT_EPOCH":459,"BSTAR":-0.02428161,"MEAN_MOTION_DOT":-0.01948207,"MEAN_MOTION_DDOT":0},{"OBJECT_NAME":"STARLINK-36865","OBJECT_ID":"2026-036AC","EPOCH":"2026-03-15T14:00:01.999872","MEAN_MOTION":15.66960761,"ECCENTRICITY":0.00015989,"INCLINATION":42.9999,"RA_OF_ASC_NODE":213.6456,"ARG_OF_PERICENTER":279.081,"MEAN_ANOMALY":99.1323,"EPHEMERIS_TYPE":0,"CLASSIFICATION_TYPE":"U","NORAD_CAT_ID":67930,"ELEMENT_SET_NO":999,"REV_AT_EPOCH":459,"BSTAR":-0.020359881,"MEAN_MOTION_DOT":-0.01964422,"MEAN_MOTION_DDOT":0},{"OBJECT_NAME":"STARLINK-36781","OBJECT_ID":"2026-036AD","EPOCH":"2026-03-15T14:00:01.999872","MEAN_MOTION":15.66362156,"ECCENTRICITY":0.00015644,"INCLINATION":42.9996,"RA_OF_ASC_NODE":213.6761,"ARG_OF_PERICENTER":276.3034,"MEAN_ANOMALY":89.7704,"EPHEMERIS_TYPE":0,"CLASSIFICATION_TYPE":"U","NORAD_CAT_ID":67931,"ELEMENT_SET_NO":999,"REV_AT_EPOCH":459,"BSTAR":-0.02081865,"MEAN_MOTION_DOT":-0.01960549,"MEAN_MOTION_DDOT":0},{"OBJECT_NAME":"STARLINK-36301","OBJECT_ID":"2026-037A","EPOCH":"2026-03-15T13:50:18.892320","MEAN_MOTION":15.82051411,"ECCENTRICITY":0.00014202,"INCLINATION":42.9974,"RA_OF_ASC_NODE":162.5002,"ARG_OF_PERICENTER":249.7495,"MEAN_ANOMALY":110.3224,"EPHEMERIS_TYPE":0,"CLASSIFICATION_TYPE":"U","NORAD_CAT_ID":67932,"ELEMENT_SET_NO":999,"REV_AT_EPOCH":418,"BSTAR":0.00088065238,"MEAN_MOTION_DOT":0.00189323,"MEAN_MOTION_DDOT":0},{"OBJECT_NAME":"STARLINK-36852","OBJECT_ID":"2026-037B","EPOCH":"2026-03-15T14:00:01.999872","MEAN_MOTION":15.74712362,"ECCENTRICITY":0.00015591,"INCLINATION":42.9996,"RA_OF_ASC_NODE":162.5081,"ARG_OF_PERICENTER":282.5244,"MEAN_ANOMALY":97.3954,"EPHEMERIS_TYPE":0,"CLASSIFICATION_TYPE":"U","NORAD_CAT_ID":67933,"ELEMENT_SET_NO":999,"REV_AT_EPOCH":414,"BSTAR":-0.014447172,"MEAN_MOTION_DOT":-0.0190216,"MEAN_MOTION_DDOT":0},{"OBJECT_NAME":"STARLINK-36861","OBJECT_ID":"2026-037C","EPOCH":"2026-03-15T15:19:03.998208","MEAN_MOTION":15.8205993,"ECCENTRICITY":0.00017224,"INCLINATION":42.9976,"RA_OF_ASC_NODE":162.1003,"ARG_OF_PERICENTER":258.2302,"MEAN_ANOMALY":101.8377,"EPHEMERIS_TYPE":0,"CLASSIFICATION_TYPE":"U","NORAD_CAT_ID":67934,"ELEMENT_SET_NO":999,"REV_AT_EPOCH":419,"BSTAR":0.00098089933,"MEAN_MOTION_DOT":0.00211569,"MEAN_MOTION_DDOT":0},{"OBJECT_NAME":"STARLINK-36860","OBJECT_ID":"2026-037D","EPOCH":"2026-03-15T13:47:00.336480","MEAN_MOTION":15.82799134,"ECCENTRICITY":0.00321903,"INCLINATION":42.9982,"RA_OF_ASC_NODE":162.4816,"ARG_OF_PERICENTER":359.1238,"MEAN_ANOMALY":0.9573,"EPHEMERIS_TYPE":0,"CLASSIFICATION_TYPE":"U","NORAD_CAT_ID":67935,"ELEMENT_SET_NO":999,"REV_AT_EPOCH":418,"BSTAR":0.0037332782,"MEAN_MOTION_DOT":0.00936049,"MEAN_MOTION_DDOT":0},{"OBJECT_NAME":"STARLINK-36848","OBJECT_ID":"2026-037E","EPOCH":"2026-03-14T16:32:09.365856","MEAN_MOTION":15.81862945,"ECCENTRICITY":0.00019559,"INCLINATION":42.9972,"RA_OF_ASC_NODE":167.8849,"ARG_OF_PERICENTER":0.4471,"MEAN_ANOMALY":359.6402,"EPHEMERIS_TYPE":0,"CLASSIFICATION_TYPE":"U","NORAD_CAT_ID":67936,"ELEMENT_SET_NO":999,"REV_AT_EPOCH":404,"BSTAR":-0.00069877644,"MEAN_MOTION_DOT":-0.00144226,"MEAN_MOTION_DDOT":0},{"OBJECT_NAME":"STARLINK-36370","OBJECT_ID":"2026-037F","EPOCH":"2026-03-15T15:17:01.916736","MEAN_MOTION":15.81339131,"ECCENTRICITY":0.00013318,"INCLINATION":42.9979,"RA_OF_ASC_NODE":162.0893,"ARG_OF_PERICENTER":245.5295,"MEAN_ANOMALY":114.5438,"EPHEMERIS_TYPE":0,"CLASSIFICATION_TYPE":"U","NORAD_CAT_ID":67937,"ELEMENT_SET_NO":999,"REV_AT_EPOCH":419,"BSTAR":-0.0031656823,"MEAN_MOTION_DOT":-0.00603215,"MEAN_MOTION_DDOT":0},{"OBJECT_NAME":"STARLINK-36371","OBJECT_ID":"2026-037G","EPOCH":"2026-03-15T15:14:44.944224","MEAN_MOTION":15.8209187,"ECCENTRICITY":0.00015789,"INCLINATION":42.9982,"RA_OF_ASC_NODE":162.0759,"ARG_OF_PERICENTER":249.4286,"MEAN_ANOMALY":110.6416,"EPHEMERIS_TYPE":0,"CLASSIFICATION_TYPE":"U","NORAD_CAT_ID":67938,"ELEMENT_SET_NO":999,"REV_AT_EPOCH":419,"BSTAR":0.0012845706,"MEAN_MOTION_DOT":0.00279869,"MEAN_MOTION_DDOT":0},{"OBJECT_NAME":"STARLINK-36246","OBJECT_ID":"2026-037H","EPOCH":"2026-03-15T14:00:01.999872","MEAN_MOTION":15.78600754,"ECCENTRICITY":0.00014114,"INCLINATION":42.9992,"RA_OF_ASC_NODE":162.3982,"ARG_OF_PERICENTER":278.7779,"MEAN_ANOMALY":144.7109,"EPHEMERIS_TYPE":0,"CLASSIFICATION_TYPE":"U","NORAD_CAT_ID":67939,"ELEMENT_SET_NO":999,"REV_AT_EPOCH":405,"BSTAR":-0.012198367,"MEAN_MOTION_DOT":-0.01911227,"MEAN_MOTION_DDOT":0},{"OBJECT_NAME":"STARLINK-36907","OBJECT_ID":"2026-037J","EPOCH":"2026-03-15T15:10:26.118336","MEAN_MOTION":15.82081221,"ECCENTRICITY":0.0001408,"INCLINATION":42.9985,"RA_OF_ASC_NODE":162.0516,"ARG_OF_PERICENTER":277.9932,"MEAN_ANOMALY":82.078,"EPHEMERIS_TYPE":0,"CLASSIFICATION_TYPE":"U","NORAD_CAT_ID":67940,"ELEMENT_SET_NO":999,"REV_AT_EPOCH":419,"BSTAR":0.0012317839,"MEAN_MOTION_DOT":0.00267835,"MEAN_MOTION_DDOT":0}]
